03174   11.9   0.15 K107N 195.62205    5.63346   72.26167    2.37372  0.1743702  0.17686636   3.1432040  0 MPO169565   958  20 1973-2009 0.56 M-v 38h MPCALI     0000   (3174) Alcock             20090525
03175   14.1   0.15 K107N 180.89327  190.15485  208.32527    0.64077  0.2117873  0.27112822   2.3642110  0 MPO141718   751  19 1933-2008 0.59 M-v 38h MPCW       0000   (3175) Netto              20080729
03176   11.0   0.15 K107N   9.24642   21.60646   53.31654   18.09702  0.0291555  0.20218384   2.8750038  0 MPO169565   623  19 1931-2010 0.54 M-v 38h MPCALI     0000   (3176) Paolicchi          20100118
03177   11.9   0.15 K107N 342.17659   40.56290   35.11621   15.95375  0.1476568  0.23063714   2.6333983  1 MPO 62177   326  11 1934-2003 0.69 M-v 38h MPCW       0000   (3177) Chillicothe        20030607
03178   12.0   0.15 K107N 241.76816  242.17784  241.67947    6.77899  0.3783427  0.22001621   2.7174794  0 MPO157262   751  16 1951-2009 0.52 M-v 38h MPCALI     0000   (3178) Yoshitsune         20090426
03179   11.9   0.15 K107N  27.32162  276.93679  179.56767    1.75507  0.1568929  0.18120952   3.0927777  0 MPO160657   753  21 1953-2009 0.55 M-v 38h MPCADO     0000   (3179) Beruti             20090820
03180   13.8   0.15 K107N 104.02499   44.38494  354.27381    5.27545  0.1474722  0.29582043   2.2307485  0 MPO160657   645  15 1962-2009 0.52 M-v 38h MPCALB     0000   (3180) Morgan             20090817
03181   12.8   0.15 K107N 319.25431  305.19040  221.19369    3.95838  0.0655480  0.29618602   2.2289124  0 MPO 57622   462  19 1931-2004 0.63 M-v 38h MPCW       0000   (3181) Ahnert             20040129
03182   12.2   0.15 K107N  29.69577  161.64391  248.46964   12.55769  0.1416374  0.23323913   2.6137765  1 MPO 47593   276  12 1946-2003 0.70 M-v 38h MPCW       0000   (3182) Shimanto           20030428
03183   12.7   0.15 K107N 241.72795  217.28888  128.69752    2.17965  0.1312047  0.17305642   3.1891693  0 MPO 41498   425  15 1949-2003 0.63 M-v 38h MPCW       0000   (3183) Franzkaiser        20030208
03184   12.1   0.15 K107N 354.48936  238.29877   97.26100    8.19658  0.2650212  0.22645127   2.6657508  0 MPO169565   833  20 1949-2009 0.51 M-v 38h MPCALI     0000   (3184) Raab               20090515
03185   14.0   0.15 K107N 251.49222  281.79503   71.30296    3.95888  0.1939263  0.27088925   2.3656012  1 MPO 47593   283  14 1931-2003 0.80 M-v 38h MPCW       0000   (3185) Clintford          20030606
03186   12.3   0.15 K107N 247.98565  206.01209  170.03622    0.80012  0.1768753  0.18001498   3.1064447  0 MPO 47593   369  14 1973-2003 0.65 M-v 38h MPCW       0000   (3186) Manuilova          20030307
03187   13.7   0.15 K107N 146.22588  105.90340  312.46505    2.75674  0.0578768  0.28560022   2.2836543  0 MPO 65989   451  15 1951-2004 0.72 M-v 38h MPCW       0000   (3187) Dalian             20040808
03188   13.4   0.15 K107N  41.80601   22.45933  336.53518    4.69463  0.1337416  0.28459563   2.2890252  0 MPO157262   797  16 1954-2008 0.55 M-v 38h MPCW       0000   (3188) Jekabsons          20080606
03189   12.6   0.15 K107N 298.67014  190.90380  177.62127    8.22872  0.1974297  0.18093887   3.0958611  0 MPO150774   665  16 1978-2008 0.60 M-v 38h MPCMEL     0000   (3189) Penza              20081230
03190   12.7   0.15 K107N  58.50054  358.52389  358.34047    9.98350  0.1157534  0.19016874   2.9948607  0 MPO169565   690  16 1955-2009 0.57 M-v 38h MPCMEL     0000   (3190) Aposhanskij        20091216
03191   12.1   0.15 K107N 252.98724  190.60057   50.87044    2.73469  0.0149479  0.20225769   2.8743040  0 MPO 47593   322  14 1975-2003 0.68 M-v 38h MPCW       0000   (3191) Svanetia           20030602
03192   13.7   0.15 K107N 271.91414   91.70248   56.76156    2.87962  0.1681218  0.26893304   2.3770589  1 MPO 53553   224  15 1975-2003 0.73 M-v 38h MPCW       0000   (3192) A'Hearn            20031026
03193   13.4   0.15 K107N 111.42597   76.71134   11.82747    5.73296  0.1057568  0.28332631   2.2958567  0 MPO 65989   392  13 1977-2004 0.67 M-v 38h MPCW       0000   (3193) Elliot             20040718
03194   12.0   0.15 K107N  59.99102  258.71357   64.36910   10.95332  0.1046619  0.18878184   3.0095108  0 MPO 65989   254  14 1953-2004 0.70 M-v 38h MPCW       0000   (3194) Dorsey             20040808
03195   12.4   0.15 K107N 158.07912   55.11269  275.27732    0.86700  0.0624931  0.19839416   2.9114999  0 MPO135426   706  20 1953-2007 0.59 M-v 38h MPCW       0000   (3195) Fedchenko          20070807
03196   12.3   0.15 K107N  36.20916  326.51581   13.14276    8.97714  0.0284631  0.18689099   3.0297756  0 MPO 47593   310  14 1953-2003 0.59 M-v 38h MPCW       0000   (3196) Maklaj             20030307
03197   11.4   0.15 K107N 316.60395  312.80508  111.81959   16.40895  0.1798586  0.22626179   2.6672388  0 MPO169565   575  14 1955-2008 0.55 M-v 38h MPCW       0000   (3197) Weissman           20080615
03198   13.0   0.15 K107N 297.30281   40.53263   83.60693   17.95937  0.2378129  0.30605286   2.1807460  0 MPO169565   526  15 1981-2009 0.52 M-v 38h MPCMEL     0007   (3198) Wallonia           20090817
03199   14.84  0.15 K107N   4.85326   53.33387  340.04452   32.97070  0.2839220  0.49893148   1.5743772  0 MPO 38158   410  11 1982-2002 0.76 M-v 38h MPCW       0004   (3199) Nefertiti          20021008
03200   14.6   0.15 K107N 273.52706  322.01855  265.38788   22.18585  0.8899445  0.68773128   1.2711307  0 MPO162225  1869  20 1983-2009 0.53 M-v 3Eh MPCALB     8003   (3200) Phaethon           20090902
03201   13.7   0.15 K107N  86.33779   52.98839  109.54711    2.98987  0.0883596  0.29058143   2.2574812  1 MPO 47593   337  13 1954-2003 0.66 M-v 38h MPCW       0000   (3201) Sijthoff           20030607
03202   11.0   0.15 K107N 327.55820  267.88742  205.20101   11.11166  0.1145405  0.12668337   3.9263557  0 MPO143011   671  21 1908-2008 0.61 M-v 38h MPCW       0008   (3202) Graff              20080830
03203   13.9   0.15 K107N 112.06844  305.24970   48.52042    6.67047  0.2627224  0.27836740   2.3230424  1 MPO 47593   276  12 1938-2003 0.66 M-v 38h MPCW       0000   (3203) Huth               20030402
03204   12.2   0.15 K107N 195.13410  298.71202  108.71053    2.06228  0.2776922  0.17532048   3.1616535  0 MPO101859   505  16 1978-2006 0.69 M-v 38h MPCW       0000   (3204) Lindgren           20060529
03205   13.1   0.15 K107N 301.24090  281.80678  120.39430   12.30351  0.1993735  0.22433557   2.6824850  0 MPO153984   499  15 1975-2009 0.57 M-v 38h MPCADO     0000   (3205) Boksenberg         20090224
03206   13.6   0.15 K107N  91.45001  355.83362   71.16221    8.66193  0.2344637  0.24158206   2.5532476  0 MPO117859   395  13 1980-2007 0.59 M-v 38h MPCW       0000   (3206) Wuhan              20070316
03207   12.3   0.15 K107N 194.96612  151.67160  167.92040    2.21215  0.0614971  0.19864165   2.9090812  0 MPO169565  1016  21 1963-2010 0.59 M-v 38h MPCAPO     0000   (3207) Spinrad            20100113
03208   12.0   0.15 K107N 166.09465   23.70238  136.91392    2.33836  0.1093415  0.17856691   3.1232162  0 MPO 87239   498  18 1931-2005 0.63 M-v 38h MPCW       0000   (3208) Lunn               20051006
03209   13.6   0.15 K107N 262.58702   31.42568  128.30663    5.23099  0.0529528  0.30369036   2.1920412  0 MPO 47593   237  14 1954-2002 0.63 M-v 38h MPCW       0000   (3209) Buchwald           20020722
03210   11.2   0.15 K107N 235.10377   21.59690  128.20208   13.60318  0.0477216  0.17921115   3.1157268  0 MPO 47593   337  14 1952-2003 0.70 M-v 38h MPCW       0000   (3210) Lupishko           20030604
03211   12.6   0.15 K107N 269.33349   83.56268  337.39606   10.50917  0.2495466  0.21798344   2.7343476  0 MPO155864   529  14 1931-2009 0.55 M-v 38h MPCALB     0000   (3211) Louispharailda     20090320
03212   13.4   0.15 K107N 144.42006   34.79725  110.08695    7.81263  0.1524143  0.29090263   2.2558192  0 MPO169565   655  16 1938-2009 0.57 M-v 38h MPCMEL     0000   (3212) Agricola           20090616
03213   12.2   0.15 K107N 225.77849  324.52575   34.08778    0.95856  0.1516983  0.17171134   3.2058023  0 MPO 47593   524  17 1950-2003 0.62 M-v 38h MPCW       0000   (3213) Smolensk           20030429
03214   11.3   0.15 K107N 149.56218  158.70589  100.32729   11.50058  0.0612698  0.18868858   3.0105023  0 MPO169565   621  23 1955-2009 0.57 M-v 38h MPCADO     0000   (3214) Makarenko          20091218
03215   12.1   0.15 K107N 210.24142   41.63027   67.23260    7.21006  0.1052702  0.17844911   3.1245907  0 MPO 47593   339  12 1980-2003 0.69 M-v 38h MPCW       0000   (3215) Lapko              20030604
03216   14.0   0.15 K107N  23.86551  224.16508  108.05561    4.91991  0.3041715  0.26582088   2.3955762  1 MPO 47593   255  12 1954-2002 0.60 M-v 38h MPCW       0000   (3216) Harrington         20020726
03217   14.4   0.15 K107N  35.44495  356.75746  343.56855    6.13274  0.2614859  0.26726678   2.3869284  1 MPO 53553   165  10 1958-2003 0.72 M-v 38h MPCW       0000   (3217) Seidelmann         20031025
03218   14.0   0.15 K107N 115.16443  242.37524  183.13936    2.70222  0.2172606  0.24636357   2.5201036  1 MPO 97223   520  15 1960-2006 0.67 M-v 38h MPCW       0000   (3218) Delphine           20060213
03219   11.6   0.15 K107N  81.77581  289.86699  290.08150    6.78762  0.1238758  0.18589854   3.0405494  0 MPO 62177   363  13 1934-2004 0.71 M-v 38h MPCW       0000   (3219) Komaki             20040319
03220   12.9   0.15 K107N 245.32428   26.01908   26.74585    6.61476  0.1742031  0.29698250   2.2249255  0 MPO120681   544  15 1941-2007 0.54 M-v 38h MPCW       0000   (3220) Murayama           20070525
03221   12.8   0.15 K107N  14.12118  233.29679   78.69678    3.65260  0.1540738  0.30115835   2.2043105  0 MPO152280   755  20 1953-2008 0.55 M-v 38h MPCALI     0000   (3221) Changshi           20081231
03222   11.4   0.15 K107N  14.31469  125.82156  151.22684   15.98620  0.0576489  0.18157726   3.0886006  0 MPO 57622   300  10 1982-2004 0.60 M-v 38h MPCW       0000   (3222) Liller             20040128
